CCSDS_OMM_VERS = 2.0
CREATION_DATE  = 
ORIGINATOR     = 

OBJECT_NAME    = STARLINK-36119
OBJECT_ID      = 2026-020C
CENTER_NAME    = EARTH
REF_FRAME      = TEME
TIME_SYSTEM    = UTC
MEAN_ELEMENT_THEORY = SGP/SGP4

EPOCH          = 2026-02-19T22:31:44.580288
MEAN_MOTION    = 15.76436198
ECCENTRICITY   = .0001287
INCLINATION    = 42.9976
RA_OF_ASC_NODE = 250.1350
ARG_OF_PERICENTER = 252.6709
MEAN_ANOMALY   = 107.4020

EPHEMERIS_TYPE = 0
CLASSIFICATION_TYPE = U
NORAD_CAT_ID   = 67619
ELEMENT_SET_NO = 999
REV_AT_EPOCH   = 328
BSTAR          = .15168E-2
MEAN_MOTION_DOT = .254871E-2
MEAN_MOTION_DDOT = 0

CCSDS_OMM_VERS = 2.0
CREATION_DATE  = 
ORIGINATOR     = 

OBJECT_NAME    = STARLINK-36607
OBJECT_ID      = 2026-020D
CENTER_NAME    = EARTH
REF_FRAME      = TEME
TIME_SYSTEM    = UTC
MEAN_ELEMENT_THEORY = SGP/SGP4

EPOCH          = 2026-02-17T22:41:59.793216
MEAN_MOTION    = 15.82415698
ECCENTRICITY   = .0002739
INCLINATION    = 42.9966
RA_OF_ASC_NODE = 261.8408
ARG_OF_PERICENTER = 285.0564
MEAN_ANOMALY   = 75.0004

EPHEMERIS_TYPE = 0
CLASSIFICATION_TYPE = U
NORAD_CAT_ID   = 67620
ELEMENT_SET_NO = 999
REV_AT_EPOCH   = 297
BSTAR          = .27681E-2
MEAN_MOTION_DOT = .639263E-2
MEAN_MOTION_DDOT = 0

CCSDS_OMM_VERS = 2.0
CREATION_DATE  = 
ORIGINATOR     = 

OBJECT_NAME    = STARLINK-36615
OBJECT_ID      = 2026-020E
CENTER_NAME    = EARTH
REF_FRAME      = TEME
TIME_SYSTEM    = UTC
MEAN_ELEMENT_THEORY = SGP/SGP4

EPOCH          = 2026-02-19T14:06:34.228224
MEAN_MOTION    = 15.82350825
ECCENTRICITY   = .0002993
INCLINATION    = 42.9971
RA_OF_ASC_NODE = 251.7845
ARG_OF_PERICENTER = 252.0024
MEAN_ANOMALY   = 108.0522

EPHEMERIS_TYPE = 0
CLASSIFICATION_TYPE = U
NORAD_CAT_ID   = 67621
ELEMENT_SET_NO = 999
REV_AT_EPOCH   = 323
BSTAR          = .3192E-2
MEAN_MOTION_DOT = .744102E-2
MEAN_MOTION_DDOT = 0

CCSDS_OMM_VERS = 2.0
CREATION_DATE  = 
ORIGINATOR     = 

OBJECT_NAME    = STARLINK-36614
OBJECT_ID      = 2026-020F
CENTER_NAME    = EARTH
REF_FRAME      = TEME
TIME_SYSTEM    = UTC
MEAN_ELEMENT_THEORY = SGP/SGP4

EPOCH          = 2026-02-19T22:25:25.325760
MEAN_MOTION    = 15.76422901
ECCENTRICITY   = .000292
INCLINATION    = 42.9989
RA_OF_ASC_NODE = 250.0987
ARG_OF_PERICENTER = 261.6822
MEAN_ANOMALY   = 98.3717

EPHEMERIS_TYPE = 0
CLASSIFICATION_TYPE = U
NORAD_CAT_ID   = 67622
ELEMENT_SET_NO = 999
REV_AT_EPOCH   = 328
BSTAR          = .29151E-3
MEAN_MOTION_DOT = .47374E-3
MEAN_MOTION_DDOT = 0

CCSDS_OMM_VERS = 2.0
CREATION_DATE  = 
ORIGINATOR     = 

OBJECT_NAME    = STARLINK-36600
OBJECT_ID      = 2026-020G
CENTER_NAME    = EARTH
REF_FRAME      = TEME
TIME_SYSTEM    = UTC
MEAN_ELEMENT_THEORY = SGP/SGP4

EPOCH          = 2026-02-19T22:28:35.308992
MEAN_MOTION    = 15.76434945
ECCENTRICITY   = .0001891
INCLINATION    = 42.9977
RA_OF_ASC_NODE = 250.1169
ARG_OF_PERICENTER = 269.3742
MEAN_ANOMALY   = 90.6911

EPHEMERIS_TYPE = 0
CLASSIFICATION_TYPE = U
NORAD_CAT_ID   = 67623
ELEMENT_SET_NO = 999
REV_AT_EPOCH   = 328
BSTAR          = .13513E-2
MEAN_MOTION_DOT = .226213E-2
MEAN_MOTION_DDOT = 0

CCSDS_OMM_VERS = 2.0
CREATION_DATE  = 
ORIGINATOR     = 

OBJECT_NAME    = STARLINK-36439
OBJECT_ID      = 2026-020H
CENTER_NAME    = EARTH
REF_FRAME      = TEME
TIME_SYSTEM    = UTC
MEAN_ELEMENT_THEORY = SGP/SGP4

EPOCH          = 2026-02-19T22:12:48.823776
MEAN_MOTION    = 15.76427943
ECCENTRICITY   = .0002554
INCLINATION    = 42.9974
RA_OF_ASC_NODE = 250.0282
ARG_OF_PERICENTER = 255.3824
MEAN_ANOMALY   = 104.6763

EPHEMERIS_TYPE = 0
CLASSIFICATION_TYPE = U
NORAD_CAT_ID   = 67624
ELEMENT_SET_NO = 999
REV_AT_EPOCH   = 328
BSTAR          = .56867E-3
MEAN_MOTION_DOT = .93404E-3
MEAN_MOTION_DDOT = 0

CCSDS_OMM_VERS = 2.0
CREATION_DATE  = 
ORIGINATOR     = 

OBJECT_NAME    = STARLINK-36438
OBJECT_ID      = 2026-020J
CENTER_NAME    = EARTH
REF_FRAME      = TEME
TIME_SYSTEM    = UTC
MEAN_ELEMENT_THEORY = SGP/SGP4

EPOCH          = 2026-02-19T22:22:16.282560
MEAN_MOTION    = 15.76437134
ECCENTRICITY   = .0003242
INCLINATION    = 42.9973
RA_OF_ASC_NODE = 250.0815
ARG_OF_PERICENTER = 248.0974
MEAN_ANOMALY   = 111.9551

EPHEMERIS_TYPE = 0
CLASSIFICATION_TYPE = U
NORAD_CAT_ID   = 67625
ELEMENT_SET_NO = 999
REV_AT_EPOCH   = 328
BSTAR          = .1088E-2
MEAN_MOTION_DOT = .181113E-2
MEAN_MOTION_DDOT = 0

CCSDS_OMM_VERS = 2.0
CREATION_DATE  = 
ORIGINATOR     = 

OBJECT_NAME    = STARLINK-36436
OBJECT_ID      = 2026-020K
CENTER_NAME    = EARTH
REF_FRAME      = TEME
TIME_SYSTEM    = UTC
MEAN_ELEMENT_THEORY = SGP/SGP4

EPOCH          = 2026-02-20T04:00:03.000096
MEAN_MOTION    = 15.76376101
ECCENTRICITY   = .0001607
INCLINATION    = 42.9992
RA_OF_ASC_NODE = 248.2522
ARG_OF_PERICENTER = 270.7472
MEAN_ANOMALY   = 143.7570

EPHEMERIS_TYPE = 0
CLASSIFICATION_TYPE = U
NORAD_CAT_ID   = 67626
ELEMENT_SET_NO = 999
REV_AT_EPOCH   = 457
BSTAR          = -.14185E-3
MEAN_MOTION_DOT = -.23532E-3
MEAN_MOTION_DDOT = 0

CCSDS_OMM_VERS = 2.0
CREATION_DATE  = 
ORIGINATOR     = 

OBJECT_NAME    = STARLINK-36502
OBJECT_ID      = 2026-020L
CENTER_NAME    = EARTH
REF_FRAME      = TEME
TIME_SYSTEM    = UTC
MEAN_ELEMENT_THEORY = SGP/SGP4

EPOCH          = 2026-02-19T21:35:33.757728
MEAN_MOTION    = 15.82129452
ECCENTRICITY   = .0002215
INCLINATION    = 42.9977
RA_OF_ASC_NODE = 249.8185
ARG_OF_PERICENTER = 304.2043
MEAN_ANOMALY   = 55.8619

EPHEMERIS_TYPE = 0
CLASSIFICATION_TYPE = U
NORAD_CAT_ID   = 67627
ELEMENT_SET_NO = 999
REV_AT_EPOCH   = 328
BSTAR          = .18069E-2
MEAN_MOTION_DOT = .400183E-2
MEAN_MOTION_DDOT = 0

CCSDS_OMM_VERS = 2.0
CREATION_DATE  = 
ORIGINATOR     = 

OBJECT_NAME    = STARLINK-36532
OBJECT_ID      = 2026-020M
CENTER_NAME    = EARTH
REF_FRAME      = TEME
TIME_SYSTEM    = UTC
MEAN_ELEMENT_THEORY = SGP/SGP4

EPOCH          = 2026-02-19T13:58:11.025984
MEAN_MOTION    = 15.82303061
ECCENTRICITY   = .0003201
INCLINATION    = 42.9971
RA_OF_ASC_NODE = 251.7361
ARG_OF_PERICENTER = 254.9934
MEAN_ANOMALY   = 105.0583

EPHEMERIS_TYPE = 0
CLASSIFICATION_TYPE = U
NORAD_CAT_ID   = 67628
ELEMENT_SET_NO = 999
REV_AT_EPOCH   = 323
BSTAR          = .29231E-2
MEAN_MOTION_DOT = .674299E-2
MEAN_MOTION_DDOT = 0

CCSDS_OMM_VERS = 2.0
CREATION_DATE  = 
ORIGINATOR     = 

OBJECT_NAME    = STARLINK-36367
OBJECT_ID      = 2026-020N
CENTER_NAME    = EARTH
REF_FRAME      = TEME
TIME_SYSTEM    = UTC
MEAN_ELEMENT_THEORY = SGP/SGP4

EPOCH          = 2026-02-20T04:00:03.000096
MEAN_MOTION    = 15.76356503
ECCENTRICITY   = .0001889
INCLINATION    = 42.9986
RA_OF_ASC_NODE = 248.4080
ARG_OF_PERICENTER = 265.5712
MEAN_ANOMALY   = 86.7457

EPHEMERIS_TYPE = 0
CLASSIFICATION_TYPE = U
NORAD_CAT_ID   = 67629
ELEMENT_SET_NO = 999
REV_AT_EPOCH   = 457
BSTAR          = .74743E-4
MEAN_MOTION_DOT = .11695E-3
MEAN_MOTION_DDOT = 0

CCSDS_OMM_VERS = 2.0
CREATION_DATE  = 
ORIGINATOR     = 

OBJECT_NAME    = STARLINK-36416
OBJECT_ID      = 2026-020P
CENTER_NAME    = EARTH
REF_FRAME      = TEME
TIME_SYSTEM    = UTC
MEAN_ELEMENT_THEORY = SGP/SGP4

EPOCH          = 2026-02-19T22:19:07.410432
MEAN_MOTION    = 15.76420025
ECCENTRICITY   = .0002372
INCLINATION    = 42.9969
RA_OF_ASC_NODE = 250.0639
ARG_OF_PERICENTER = 249.2758
MEAN_ANOMALY   = 110.7857

EPHEMERIS_TYPE = 0
CLASSIFICATION_TYPE = U
NORAD_CAT_ID   = 67630
ELEMENT_SET_NO = 999
REV_AT_EPOCH   = 328
BSTAR          = .86861E-3
MEAN_MOTION_DOT = .143729E-2
MEAN_MOTION_DDOT = 0

