STARLINK-36119          
1 67619U 26020C   26050.93871042  .00254871  00000+0  15168-2 0  9995
2 67619  42.9976 250.1350 0001287 252.6709 107.4020 15.76436198  3280
STARLINK-36607          
1 67620U 26020D   26048.94583094  .00639263  00000+0  27681-2 0  9997
2 67620  42.9966 261.8408 0002739 285.0564  75.0004 15.82415698  2972
STARLINK-36615          
1 67621U 26020E   26050.58789616  .00744102  00000+0  31920-2 0  9999
2 67621  42.9971 251.7845 0002993 252.0024 108.0522 15.82350825  3231
STARLINK-36614          
1 67622U 26020F   26050.93432090  .00047374  00000+0  29151-3 0  9991
2 67622  42.9989 250.0987 0002920 261.6822  98.3717 15.76422901  3282
STARLINK-36600          
1 67623U 26020G   26050.93651978  .00226213  00000+0  13513-2 0  9995
2 67623  42.9977 250.1169 0001891 269.3742  90.6911 15.76434945  3287
STARLINK-36439          
1 67624U 26020H   26050.92556509  .00093404  00000+0  56867-3 0  9993
2 67624  42.9974 250.0282 0002554 255.3824 104.6763 15.76427943  3284
STARLINK-36438          
1 67625U 26020J   26050.93213290  .00181113  00000+0  10880-2 0  9991
2 67625  42.9973 250.0815 0003242 248.0974 111.9551 15.76437134  3285
STARLINK-36436          
1 67626U 26020K   26051.16670139 -.00023532  00000+0 -14185-3 0  9992
2 67626  42.9992 248.2522 0001607 270.7472 143.7570 15.76376101  4572
STARLINK-36502          
1 67627U 26020L   26050.89969627  .00400183  00000+0  18069-2 0  9998
2 67627  42.9977 249.8185 0002215 304.2043  55.8619 15.82129452  3287
STARLINK-36532          
1 67628U 26020M   26050.58207206  .00674299  00000+0  29231-2 0  9997
2 67628  42.9971 251.7361 0003201 254.9934 105.0583 15.82303061  3239
STARLINK-36367          
1 67629U 26020N   26051.16670139  .00011695  00000+0  74743-4 0  9997
2 67629  42.9986 248.4080 0001889 265.5712  86.7457 15.76356503  4574
STARLINK-36416          
1 67630U 26020P   26050.92994688  .00143729  00000+0  86861-3 0  9997
2 67630  42.9969 250.0639 0002372 249.2758 110.7857 15.76420025  3283
